{
  "type": "FeatureCollection",
  "features": [
    {
      "type": "Feature",
      "properties": {
        "norad_id": 35023,
        "name": "COSMOS 2251 DEB",
        "group": "cosmos-2251-debris",
        "lat": -68.47177738954503,
        "lon": 70.7114959092501,
        "alt_km": 567.423542436758,
        "timestamp": "2025-12-16T21:38:57.571125+00:00",
        "meta_object_name": "COSMOS 2251 DEB",
        "meta_object_id": "1993-036AGL",
        "meta_epoch": "2025-12-16T08:27:00.817056",
        "meta_mean_motion": 14.95215262,
        "meta_eccentricity": 0.00337952,
        "meta_inclination": 74.0372,
        "meta_ra_of_asc_node": 205.3008,
        "meta_arg_of_pericenter": 282.5943,
        "meta_mean_anomaly": 253.8375,
        "meta_ephemeris_type": 0,
        "meta_classification_type": "U",
        "meta_norad_cat_id": 35023,
        "meta_element_set_no": 999,
        "meta_rev_at_epoch": 88333,
        "meta_bstar": 0.00093234373,
        "meta_mean_motion_dot": 0.00010345,
        "meta_mean_motion_ddot": 0,
        "tle_line1": "1 35023U 93036AGL 25350.35209279  .00010345  00000+0  93234-3 0  9992",
        "tle_line2": "2 35023  74.0372 205.3008 0033795 282.5943 253.8375 14.95215262883331"
      },
      "geometry": {
        "type": "Point",
        "coordinates": [
          70.7114959092501,
          -68.47177738954503
        ]
      }
    },
    {
      "type": "Feature",
      "properties": {
        "norad_id": 35025,
        "name": "COSMOS 2251 DEB",
        "group": "cosmos-2251-debris",
        "lat": -5.284663422105981,
        "lon": 53.2469247618863,
        "alt_km": 602.5847073585919,
        "timestamp": "2025-12-16T21:38:57.571135+00:00",
        "meta_object_name": "COSMOS 2251 DEB",
        "meta_object_id": "1993-036AGN",
        "meta_epoch": "2025-12-15T14:41:53.784384",
        "meta_mean_motion": 14.72723882,
        "meta_eccentricity": 0.00852985,
        "meta_inclination": 73.9389,
        "meta_ra_of_asc_node": 57.2992,
        "meta_arg_of_pericenter": 329.5046,
        "meta_mean_anomaly": 30.1179,
        "meta_ephemeris_type": 0,
        "meta_classification_type": "U",
        "meta_norad_cat_id": 35025,
        "meta_element_set_no": 999,
        "meta_rev_at_epoch": 88685,
        "meta_bstar": 0.0002696379,
        "meta_mean_motion_dot": 1.786e-05,
        "meta_mean_motion_ddot": 0,
        "tle_line1": "1 35025U 93036AGN 25349.61242806  .00001786  00000+0  26964-3 0  9999",
        "tle_line2": "2 35025  73.9389  57.2992 0085298 329.5046  30.1179 14.72723882886851"
      },
      "geometry": {
        "type": "Point",
        "coordinates": [
          53.2469247618863,
          -5.284663422105981
        ]
      }
    },
    {
      "type": "Feature",
      "properties": {
        "norad_id": 35026,
        "name": "COSMOS 2251 DEB",
        "group": "cosmos-2251-debris",
        "lat": -58.46577605862418,
        "lon": -76.84120030331054,
        "alt_km": 754.3015829273872,
        "timestamp": "2025-12-16T21:38:57.571145+00:00",
        "meta_object_name": "COSMOS 2251 DEB",
        "meta_object_id": "1993-036AGP",
        "meta_epoch": "2025-12-16T05:43:16.279104",
        "meta_mean_motion": 14.53625612,
        "meta_eccentricity": 0.00823729,
        "meta_inclination": 74.0468,
        "meta_ra_of_asc_node": 312.1968,
        "meta_arg_of_pericenter": 64.663,
        "meta_mean_anomaly": 2.1155,
        "meta_ephemeris_type": 0,
        "meta_classification_type": "U",
        "meta_norad_cat_id": 35026,
        "meta_element_set_no": 999,
        "meta_rev_at_epoch": 88194,
        "meta_bstar": 7.3174206e-05,
        "meta_mean_motion_dot": 2.9e-06,
        "meta_mean_motion_ddot": 0,
        "tle_line1": "1 35026U 93036AGP 25350.23838286  .00000290  00000+0  73174-4 0  9998",
        "tle_line2": "2 35026  74.0468 312.1968 0082372  64.6630   2.1155 14.53625612881943"
      },
      "geometry": {
        "type": "Point",
        "coordinates": [
          -76.84120030331054,
          -58.46577605862418
        ]
      }
    },
    {
      "type": "Feature",
      "properties": {
        "norad_id": 35028,
        "name": "COSMOS 2251 DEB",
        "group": "cosmos-2251-debris",
        "lat": 72.99109062708267,
        "lon": 13.753974294195093,
        "alt_km": 667.5398213786375,
        "timestamp": "2025-12-16T21:38:57.571156+00:00",
        "meta_object_name": "COSMOS 2251 DEB",
        "meta_object_id": "1993-036AGR",
        "meta_epoch": "2025-12-16T05:25:54.829920",
        "meta_mean_motion": 14.56573716,
        "meta_eccentricity": 0.00825907,
        "meta_inclination": 74.0385,
        "meta_ra_of_asc_node": 264.3643,
        "meta_arg_of_pericenter": 37.0811,
        "meta_mean_anomaly": 116.1856,
        "meta_ephemeris_type": 0,
        "meta_classification_type": "U",
        "meta_norad_cat_id": 35028,
        "meta_element_set_no": 999,
        "meta_rev_at_epoch": 88336,
        "meta_bstar": 0.0001006742,
        "meta_mean_motion_dot": 4.39e-06,
        "meta_mean_motion_ddot": 0,
        "tle_line1": "1 35028U 93036AGR 25350.22632905  .00000439  00000+0  10067-3 0  9995",
        "tle_line2": "2 35028  74.0385 264.3643 0082590  37.0811 116.1856 14.56573716883360"
      },
      "geometry": {
        "type": "Point",
        "coordinates": [
          13.753974294195093,
          72.99109062708267
        ]
      }
    },
    {
      "type": "Feature",
      "properties": {
        "norad_id": 35031,
        "name": "COSMOS 2251 DEB",
        "group": "cosmos-2251-debris",
        "lat": 73.75196304124808,
        "lon": -7.53685768019718,
        "alt_km": 761.0852967895662,
        "timestamp": "2025-12-16T21:38:57.571166+00:00",
        "meta_object_name": "COSMOS 2251 DEB",
        "meta_object_id": "1993-036AGU",
        "meta_epoch": "2025-12-15T10:09:49.353696",
        "meta_mean_motion": 14.38296815,
        "meta_eccentricity": 0.00189775,
        "meta_inclination": 74.0382,
        "meta_ra_of_asc_node": 254.3184,
        "meta_arg_of_pericenter": 347.2171,
        "meta_mean_anomaly": 12.8499,
        "meta_ephemeris_type": 0,
        "meta_classification_type": "U",
        "meta_norad_cat_id": 35031,
        "meta_element_set_no": 999,
        "meta_rev_at_epoch": 65322,
        "meta_bstar": 0.00017769599,
        "meta_mean_motion_dot": 5.15e-06,
        "meta_mean_motion_ddot": 0,
        "tle_line1": "1 35031U 93036AGU 25349.42348789  .00000515  00000+0  17770-3 0  9996",
        "tle_line2": "2 35031  74.0382 254.3184 0018977 347.2171  12.8499 14.38296815653220"
      },
      "geometry": {
        "type": "Point",
        "coordinates": [
          -7.53685768019718,
          73.75196304124808
        ]
      }
    },
    {
      "type": "Feature",
      "properties": {
        "norad_id": 35032,
        "name": "COSMOS 2251 DEB",
        "group": "cosmos-2251-debris",
        "lat": -73.13408258356829,
        "lon": -107.85987682337357,
        "alt_km": 676.3837857164572,
        "timestamp": "2025-12-16T21:38:57.571176+00:00",
        "meta_object_name": "COSMOS 2251 DEB",
        "meta_object_id": "1993-036AGV",
        "meta_epoch": "2025-12-16T07:20:55.474368",
        "meta_mean_motion": 14.58755256,
        "meta_eccentricity": 0.00681516,
        "meta_inclination": 73.8518,
        "meta_ra_of_asc_node": 0.4086,
        "meta_arg_of_pericenter": 211.1582,
        "meta_mean_anomaly": 165.3981,
        "meta_ephemeris_type": 0,
        "meta_classification_type": "U",
        "meta_norad_cat_id": 35032,
        "meta_element_set_no": 999,
        "meta_rev_at_epoch": 87726,
        "meta_bstar": 0.00060668218,
        "meta_mean_motion_dot": 2.894e-05,
        "meta_mean_motion_ddot": 0,
        "tle_line1": "1 35032U 93036AGV 25350.30619762  .00002894  00000+0  60668-3 0  9994",
        "tle_line2": "2 35032  73.8518   0.4086 0068151 211.1582 165.3981 14.58755256877267"
      },
      "geometry": {
        "type": "Point",
        "coordinates": [
          -107.85987682337357,
          -73.13408258356829
        ]
      }
    },
    {
      "type": "Feature",
      "properties": {
        "norad_id": 35033,
        "name": "COSMOS 2251 DEB",
        "group": "cosmos-2251-debris",
        "lat": 8.593005069152754,
        "lon": -13.734926334575247,
        "alt_km": 726.3986788779639,
        "timestamp": "2025-12-16T21:38:57.571186+00:00",
        "meta_object_name": "COSMOS 2251 DEB",
        "meta_object_id": "1993-036AGW",
        "meta_epoch": "2025-12-14T19:13:10.523136",
        "meta_mean_motion": 14.50941129,
        "meta_eccentricity": 0.00144614,
        "meta_inclination": 74.0257,
        "meta_ra_of_asc_node": 172.6985,
        "meta_arg_of_pericenter": 279.0961,
        "meta_mean_anomaly": 80.8563,
        "meta_ephemeris_type": 0,
        "meta_classification_type": "U",
        "meta_norad_cat_id": 35033,
        "meta_element_set_no": 999,
        "meta_rev_at_epoch": 65957,
        "meta_bstar": 0.00063074773,
        "meta_mean_motion_dot": 2.468e-05,
        "meta_mean_motion_ddot": 0,
        "tle_line1": "1 35033U 93036AGW 25348.80081624  .00002468  00000+0  63075-3 0  9999",
        "tle_line2": "2 35033  74.0257 172.6985 0014461 279.0961  80.8563 14.50941129659577"
      },
      "geometry": {
        "type": "Point",
        "coordinates": [
          -13.734926334575247,
          8.593005069152754
        ]
      }
    }
  ]
}